
ASNARO-2
1 43152U 18007A   26170.28934939  .00007240  00000+0  31636-3 0  9998
2 43152  97.3972 177.1838 0001810  90.5217 269.6227 15.22396729467730

AUTCUBE 2
1 43681U 18084K   26170.28451047  .00002446  00000+0  15440-3 0  9992
2 43681  98.0708  16.5700 0009901  43.1941 317.0062 15.10102080417241

CFOSAT
1 43662U 18083A   26170.27142773  .00002604  00000+0  13747-3 0  9996
2 43662  97.3605 174.7407 0002404  89.5620 270.5888 15.16385378422758

COSMOS 2530 (RODNIK-S *)
1 43751U 18097A   26170.30867356 -.00000029  00000+0 -28115-3 0  9991
2 43751  82.5132 220.9643 0020104  35.1881 325.0522 12.42881137342557

DIWATA-2B
1 43678U 18084H   26170.30387986  .00001646  00000+0  13580-3 0  9995
2 43678  98.1183   6.6032 0012715 163.3714 196.7928 15.00459215416531

ES'HAIL 2
1 43700U 18090A   26170.25648108  .00000138  00000+0  00000+0 0  9992
2 43700   0.0116  48.4976 0001741  75.7738 261.3229  1.00271825 27697

GAOFEN-6
1 43484U 18048A   26170.30736729  .00001691  00000+0  24921-3 0  9994
2 43484  97.9706 233.0275 0011801 158.7359 201.4343 14.76600497433702

GOES 17
1 43226U 18022A   26170.01972807 -.00000189  00000+0  00000+0 0  9997
2 43226   0.9428  85.6763 0000507  27.5592  71.5925  1.00269550 30447

HAIYANG-1C
1 43609U 18068A   26170.33801905 -.00000025  00000+0  64371-5 0  9993
2 43609  98.5189 242.6152 0012122  88.7703 271.4870 14.34179305407396

HAIYANG-2B
1 43655U 18081A   26170.33916792  .00000391  00000+0  42342-3 0  9997
2 43655  99.3281 179.0634 0000310   2.9071 357.2082 13.79308475385224

HYSIS
1 43719U 18096A   26170.30926766  .00000149  00000+0  27433-4 0  9999
2 43719  97.9836 237.0410 0001771  97.5890 262.5522 14.78619131407735

JILIN-1 07
1 43159U 18008E   26170.30977188  .00007427  00000+0  22244-3 0  9994
2 43159  97.1768 190.1817 0009731  59.0111 301.2087 15.34752778465326

JILIN-1 08
1 43160U 18008F   26170.24616353  .00005305  00000+0  16485-3 0  9996
2 43160  97.1801 189.4342 0007950  74.4808 285.7312 15.33733687465262

LKW-4
1 43236U 18025A   26169.93674726  .00032455  00000+0  36710-3 0  9990
2 43236  97.6349 340.9470 0001963 281.4026  78.7010 15.62388571460309

LUOJIA-1 01
1 43485U 18048B   26170.32712865  .00001538  00000+0  17643-3 0  9995
2 43485  97.8104 248.4806 0010395 110.9160 249.3170 14.87292925434537

METOP-C
1 43689U 18087A   26170.25005616  .00000068  00000+0  51101-4 0  9990
2 43689  98.6644 229.8160 0001835 126.8899 233.2447 14.21512608395122

MOHAMMED VI-B
1 43717U 18095A   26170.27682672  .00000108  00000+0  22444-4 0  9999
2 43717  97.9554 242.5737 0001344  99.8816 260.2546 14.77118483408490

PAKTES 1A
1 43529U 18056A   26170.27411008  .00000930  00000+0  81554-4 0  9990
2 43529  98.1305 326.8499 0021989  99.6462 260.7245 14.99110316432232

PAZ
1 43215U 18020A   26170.28065866  .00001396  00000+0  69668-4 0  9990
2 43215  97.4454 177.6368 0001718  88.5631 271.5801 15.19143014461325

PRSS-1
1 43530U 18056B   26170.28292638  .00000806  00000+0  10801-3 0  9997
2 43530  97.7817 238.0948 0001574  77.2726 282.8664 14.81991735428747

S-NET A
1 43188U 18014J   26170.24207808  .00003872  00000+0  20093-3 0  9991
2 43188  97.5374  75.2156 0009115  19.4309 340.7269 15.16697000459070

S-NET B
1 43187U 18014H   26170.25470483  .00003828  00000+0  19891-3 0  9997
2 43187  97.5364  75.0190 0009245  18.8200 341.3373 15.16659623459073

S-NET C
1 43189U 18014K   26170.25859131  .00003878  00000+0  20147-3 0  9991
2 43189  97.5392  75.3071 0010238  11.0428 349.1028 15.16651751457624

S-NET D
1 43186U 18014G   26170.24321138  .00003818  00000+0  19824-3 0  9992
2 43186  97.5358  75.0209 0008737  23.9681 336.1957 15.16688992459072

SSTL S1-4
1 43618U 18071A   26170.29528854 -.00000060  00000+0 -51201-6 0  9990
2 43618  97.5019  41.8220 0001239 105.0633 255.0726 14.96179548423252

STARS-AO
1 43679U 18084J   26170.05232439  .00004539  00000+0  23306-3 0  9991
2 43679  98.0497  24.1382 0003004 133.0846 227.0637 15.17069831417752

TEN-KOH
1 43677U 18084G   26170.25416127  .00001447  00000+0  11251-3 0  9990
2 43677  98.0772   2.7053 0011511 108.2407 252.0071 15.02949377416476

ZHUHAI-1 OHS-02
1 43441U 18040C   26170.31506706  .00006159  00000+0  24260-3 0  9990
2 43441  97.0369 194.3603 0008313 211.4347 148.6396 15.25906658114601

ZHUHAI-1 OVS-02
1 43440U 18040B   26170.33118118  .00006064  00000+0  24530-3 0  9992
2 43440  97.0386 187.4338 0001933 221.0957 139.0136 15.25048697453042
