OBJECT_NAME,OBJECT_ID,EPOCH,MEAN_MOTION,ECCENTRICITY,INCLINATION,RA_OF_ASC_NODE,ARG_OF_PERICENTER,MEAN_ANOMALY,EPHEMERIS_TYPE,CLASSIFICATION_TYPE,NORAD_CAT_ID,ELEMENT_SET_NO,REV_AT_EPOCH,BSTAR,MEAN_MOTION_DOT,MEAN_MOTION_DDOT
ASNARO-2,2018-007A,2026-06-19T06:56:39.787296,15.22396729,.00018107,97.3972,177.1838,90.5217,269.6227,0,U,43152,999,46773,.31636335E-3,.724E-4,0
JILIN-1 07,2018-008E,2026-06-19T07:26:04.290432,15.34752778,.0009731,97.1768,190.1817,59.0111,301.2087,0,U,43159,999,46532,.22244065E-3,.7427E-4,0
JILIN-1 08,2018-008F,2026-06-19T05:54:28.528992,15.33733687,.00079506,97.1801,189.4342,74.4808,285.7312,0,U,43160,999,46526,.16485078E-3,.5305E-4,0
S-NET D,2018-014G,2026-06-19T05:50:13.463232,15.16688992,.00087379,97.5358,75.0209,23.9681,336.1957,0,U,43186,999,45907,.1982443E-3,.3818E-4,0
S-NET B,2018-014H,2026-06-19T06:06:46.497312,15.16659623,.00092452,97.5364,75.0190,18.8200,341.3373,0,U,43187,999,45907,.19890543E-3,.3828E-4,0
S-NET A,2018-014J,2026-06-19T05:48:35.546112,15.16697000,.00091153,97.5374,75.2156,19.4309,340.7269,0,U,43188,999,45907,.20093151E-3,.3872E-4,0
S-NET C,2018-014K,2026-06-19T06:12:22.289184,15.16651751,.00102384,97.5392,75.3071,11.0428,349.1028,0,U,43189,999,45762,.20147478E-3,.3878E-4,0
PAZ,2018-020A,2026-06-19T06:44:08.908224,15.19143014,.00017183,97.4454,177.6368,88.5631,271.5801,0,U,43215,999,46132,.69668292E-4,.1396E-4,0
GOES 17,2018-022A,2026-06-19T00:28:24.505248,1.00269550,.00005077,0.9428,85.6763,27.5592,71.5925,0,U,43226,999,3044,0,-.189E-5,0
LKW-4,2018-025A,2026-06-18T22:28:54.963264,15.62388571,.0001963,97.6349,340.9470,281.4026,78.7010,0,U,43236,999,46030,.3671E-3,.32455E-3,0
ZHUHAI-1 OVS-02,2018-040B,2026-06-19T07:56:54.053952,15.25048697,.00019336,97.0386,187.4338,221.0957,139.0136,0,U,43440,999,45304,.24529938E-3,.6064E-4,0
ZHUHAI-1 OHS-02,2018-040C,2026-06-19T07:33:41.793984,15.25906658,.00083133,97.0369,194.3603,211.4347,148.6396,0,U,43441,999,11460,.24259917E-3,.6159E-4,0
GAOFEN-6,2018-048A,2026-06-19T07:22:36.533856,14.76600497,.00118013,97.9706,233.0275,158.7359,201.4343,0,U,43484,999,43370,.24920755E-3,.1691E-4,0
LUOJIA-1 01,2018-048B,2026-06-19T07:51:03.915360,14.87292925,.00103951,97.8104,248.4806,110.9160,249.3170,0,U,43485,999,43453,.1764337E-3,.1538E-4,0
PAKTES 1A,2018-056A,2026-06-19T06:34:43.110912,14.99110316,.00219896,98.1305,326.8499,99.6462,260.7245,0,U,43529,999,43223,.81553554E-4,.93E-5,0
PRSS-1,2018-056B,2026-06-19T06:47:24.839232,14.81991735,.00015744,97.7817,238.0948,77.2726,282.8664,0,U,43530,999,42874,.10801405E-3,.806E-5,0
HAIYANG-1C,2018-068A,2026-06-19T08:06:44.845920,14.34179305,.00121226,98.5189,242.6152,88.7703,271.4870,0,U,43609,999,40739,.6437114E-5,-.25E-6,0
SSTL S1-4,2018-071A,2026-06-19T07:05:12.929856,14.96179548,.00012399,97.5019,41.8220,105.0633,255.0726,0,U,43618,999,42325,-.512011E-6,-.6E-6,0
HAIYANG-2B,2018-081A,2026-06-19T08:08:24.108288,13.79308475,.00003106,99.3281,179.0634,2.9071,357.2082,0,U,43655,999,38522,.42342254E-3,.391E-5,0
CFOSAT,2018-083A,2026-06-19T06:30:51.355872,15.16385378,.00024044,97.3605,174.7407,89.5620,270.5888,0,U,43662,999,42275,.13746541E-3,.2604E-4,0
TEN-KOH,2018-084G,2026-06-19T06:05:59.533728,15.02949377,.00115116,98.0772,2.7053,108.2407,252.0071,0,U,43677,999,41647,.11250608E-3,.1447E-4,0
DIWATA-2B,2018-084H,2026-06-19T07:17:35.219904,15.00459215,.00127155,98.1183,6.6032,163.3714,196.7928,0,U,43678,999,41653,.13579965E-3,.1646E-4,0
STARS-AO,2018-084J,2026-06-19T01:15:20.827296,15.17069831,.00030042,98.0497,24.1382,133.0846,227.0637,0,U,43679,999,41775,.2330572E-3,.4539E-4,0
AUTCUBE 2,2018-084K,2026-06-19T06:49:41.704608,15.10102080,.00099013,98.0708,16.5700,43.1941,317.0062,0,U,43681,999,41724,.15440469E-3,.2446E-4,0
METOP-C,2018-087A,2026-06-19T06:00:04.852224,14.21512608,.00018356,98.6644,229.8160,126.8899,233.2447,0,U,43689,999,39512,.51100648E-4,.68E-6,0
ES'HAIL 2,2018-090A,2026-06-19T06:09:19.965312,1.00271825,.00017419,0.0116,48.4976,75.7738,261.3229,0,U,43700,999,2769,0,.138E-5,0
MOHAMMED VI-B,2018-095A,2026-06-19T06:38:37.828608,14.77118483,.00013445,97.9554,242.5737,99.8816,260.2546,0,U,43717,999,40849,.22444185E-4,.108E-5,0
HYSIS,2018-096A,2026-06-19T07:25:20.725824,14.78619131,.00017714,97.9836,237.0410,97.5890,262.5522,0,U,43719,999,40773,.27433246E-4,.149E-5,0
COSMOS 2530 (RODNIK-S 16),2018-097A,2026-06-19T07:24:29.395584,12.42881137,.00201047,82.5132,220.9643,35.1881,325.0522,0,U,43751,999,34255,-.28114683E-3,-.29E-6,0
